{
  "type": "FeatureCollection",
  "features": [
    {
      "type": "Feature",
      "properties": {
        "norad_id": 24876,
        "name": "GPS BIIR-2  (PRN 13)",
        "group": "gps-ops",
        "lat": 44.26648077360113,
        "lon": -115.96492843413252,
        "alt_km": 20069.001742343236,
        "timestamp": "2025-12-27T08:36:18.640728+00:00",
        "meta_object_name": "GPS BIIR-2  (PRN 13)",
        "meta_object_id": "1997-035A",
        "meta_epoch": "2025-12-26T16:37:51.239424",
        "meta_mean_motion": 2.00563658,
        "meta_eccentricity": 0.0096861,
        "meta_inclination": 55.9017,
        "meta_ra_of_asc_node": 105.3231,
        "meta_arg_of_pericenter": 56.9183,
        "meta_mean_anomaly": 304.0095,
        "meta_ephemeris_type": 0,
        "meta_classification_type": "U",
        "meta_norad_cat_id": 24876,
        "meta_element_set_no": 999,
        "meta_rev_at_epoch": 20849,
        "meta_bstar": 0,
        "meta_mean_motion_dot": 2.3e-07,
        "meta_mean_motion_ddot": 0,
        "tle_line1": "1 24876U 97035A   25360.69295416  .00000023  00000+0  00000+0 0  9992",
        "tle_line2": "2 24876  55.9017 105.3231 0096861  56.9183 304.0095  2.00563658208492"
      },
      "geometry": {
        "type": "Point",
        "coordinates": [
          -115.96492843413252,
          44.26648077360113
        ]
      }
    },
    {
      "type": "Feature",
      "properties": {
        "norad_id": 26360,
        "name": "GPS BIIR-4  (PRN 20)",
        "group": "gps-ops",
        "lat": -26.820315144013332,
        "lon": -133.04540334031708,
        "alt_km": 20095.75995317285,
        "timestamp": "2025-12-27T08:36:18.640755+00:00",
        "meta_object_name": "GPS BIIR-4  (PRN 20)",
        "meta_object_id": "2000-025A",
        "meta_epoch": "2025-12-27T03:31:58.663200",
        "meta_mean_motion": 2.0056635,
        "meta_eccentricity": 0.0038899,
        "meta_inclination": 55.0538,
        "meta_ra_of_asc_node": 26.2552,
        "meta_arg_of_pericenter": 243.3579,
        "meta_mean_anomaly": 177.6691,
        "meta_ephemeris_type": 0,
        "meta_classification_type": "U",
        "meta_norad_cat_id": 26360,
        "meta_element_set_no": 999,
        "meta_rev_at_epoch": 18782,
        "meta_bstar": 0,
        "meta_mean_motion_dot": -5.6e-07,
        "meta_mean_motion_ddot": 0,
        "tle_line1": "1 26360U 00025A   25361.14720675 -.00000056  00000+0  00000+0 0  9993",
        "tle_line2": "2 26360  55.0538  26.2552 0038899 243.3579 177.6691  2.00566350187827"
      },
      "geometry": {
        "type": "Point",
        "coordinates": [
          -133.04540334031708,
          -26.820315144013332
        ]
      }
    },
    {
      "type": "Feature",
      "properties": {
        "norad_id": 26407,
        "name": "GPS BIIR-5  (PRN 22)",
        "group": "gps-ops",
        "lat": 41.82031743280544,
        "lon": -98.99850286842849,
        "alt_km": 20300.730912439303,
        "timestamp": "2025-12-27T08:36:18.640772+00:00",
        "meta_object_name": "GPS BIIR-5  (PRN 22)",
        "meta_object_id": "2000-040A",
        "meta_epoch": "2025-12-27T00:44:30.923808",
        "meta_mean_motion": 2.00568073,
        "meta_eccentricity": 0.0125245,
        "meta_inclination": 54.8878,
        "meta_ra_of_asc_node": 222.0006,
        "meta_arg_of_pericenter": 302.0312,
        "meta_mean_anomaly": 234.7403,
        "meta_ephemeris_type": 0,
        "meta_classification_type": "U",
        "meta_norad_cat_id": 26407,
        "meta_element_set_no": 999,
        "meta_rev_at_epoch": 18649,
        "meta_bstar": 0,
        "meta_mean_motion_dot": 7.7e-07,
        "meta_mean_motion_ddot": 0,
        "tle_line1": "1 26407U 00040A   25361.03091347  .00000077  00000+0  00000+0 0  9999",
        "tle_line2": "2 26407  54.8878 222.0006 0125245 302.0312 234.7403  2.00568073186495"
      },
      "geometry": {
        "type": "Point",
        "coordinates": [
          -98.99850286842849,
          41.82031743280544
        ]
      }
    },
    {
      "type": "Feature",
      "properties": {
        "norad_id": 27663,
        "name": "GPS BIIR-8  (PRN 16)",
        "group": "gps-ops",
        "lat": -8.549543451321481,
        "lon": 47.87040328750459,
        "alt_km": 20474.65093629304,
        "timestamp": "2025-12-27T08:36:18.640787+00:00",
        "meta_object_name": "GPS BIIR-8  (PRN 16)",
        "meta_object_id": "2003-005A",
        "meta_epoch": "2025-12-26T14:42:29.071008",
        "meta_mean_motion": 2.00570063,
        "meta_eccentricity": 0.0147921,
        "meta_inclination": 54.9204,
        "meta_ra_of_asc_node": 221.8264,
        "meta_arg_of_pericenter": 52.0033,
        "meta_mean_anomaly": 318.8923,
        "meta_ephemeris_type": 0,
        "meta_classification_type": "U",
        "meta_norad_cat_id": 27663,
        "meta_element_set_no": 999,
        "meta_rev_at_epoch": 16785,
        "meta_bstar": 0,
        "meta_mean_motion_dot": 7.5e-07,
        "meta_mean_motion_ddot": 0,
        "tle_line1": "1 27663U 03005A   25360.61283647  .00000075  00000+0  00000+0 0  9995",
        "tle_line2": "2 27663  54.9204 221.8264 0147921  52.0033 318.8923  2.00570063167856"
      },
      "geometry": {
        "type": "Point",
        "coordinates": [
          47.87040328750459,
          -8.549543451321481
        ]
      }
    },
    {
      "type": "Feature",
      "properties": {
        "norad_id": 28190,
        "name": "GPS BIIR-11 (PRN 19)",
        "group": "gps-ops",
        "lat": -10.20219242302143,
        "lon": -84.61981164025514,
        "alt_km": 20472.976855555804,
        "timestamp": "2025-12-27T08:36:18.640800+00:00",
        "meta_object_name": "GPS BIIR-11 (PRN 19)",
        "meta_object_id": "2004-009A",
        "meta_epoch": "2025-12-27T01:44:09.252384",
        "meta_mean_motion": 2.00560169,
        "meta_eccentricity": 0.0108623,
        "meta_inclination": 54.9727,
        "meta_ra_of_asc_node": 282.6413,
        "meta_arg_of_pericenter": 167.8785,
        "meta_mean_anomaly": 332.9978,
        "meta_ephemeris_type": 0,
        "meta_classification_type": "U",
        "meta_norad_cat_id": 28190,
        "meta_element_set_no": 999,
        "meta_rev_at_epoch": 15949,
        "meta_bstar": 0,
        "meta_mean_motion_dot": -3.3e-07,
        "meta_mean_motion_ddot": 0,
        "tle_line1": "1 28190U 04009A   25361.07232931 -.00000033  00000+0  00000+0 0  9992",
        "tle_line2": "2 28190  54.9727 282.6413 0108623 167.8785 332.9978  2.00560169159492"
      },
      "geometry": {
        "type": "Point",
        "coordinates": [
          -84.61981164025514,
          -10.20219242302143
        ]
      }
    },
    {
      "type": "Feature",
      "properties": {
        "norad_id": 28474,
        "name": "GPS BIIR-13 (PRN 02)",
        "group": "gps-ops",
        "lat": 39.01825911466396,
        "lon": 6.039094991958147,
        "alt_km": 20249.957544045767,
        "timestamp": "2025-12-27T08:36:18.640812+00:00",
        "meta_object_name": "GPS BIIR-13 (PRN 02)",
        "meta_object_id": "2004-045A",
        "meta_epoch": "2025-12-26T11:00:01.330272",
        "meta_mean_motion": 2.00570057,
        "meta_eccentricity": 0.0171007,
        "meta_inclination": 55.2338,
        "meta_ra_of_asc_node": 331.8542,
        "meta_arg_of_pericenter": 309.865,
        "meta_mean_anomaly": 168.2197,
        "meta_ephemeris_type": 0,
        "meta_classification_type": "U",
        "meta_norad_cat_id": 28474,
        "meta_element_set_no": 999,
        "meta_rev_at_epoch": 15496,
        "meta_bstar": 0,
        "meta_mean_motion_dot": -5.9e-07,
        "meta_mean_motion_ddot": 0,
        "tle_line1": "1 28474U 04045A   25360.45834873 -.00000059  00000+0  00000+0 0  9999",
        "tle_line2": "2 28474  55.2338 331.8542 0171007 309.8650 168.2197  2.00570057154961"
      },
      "geometry": {
        "type": "Point",
        "coordinates": [
          6.039094991958147,
          39.01825911466396
        ]
      }
    },
    {
      "type": "Feature",
      "properties": {
        "norad_id": 28874,
        "name": "GPS BIIRM-1 (PRN 17)",
        "group": "gps-ops",
        "lat": 7.249762030192818,
        "lon": -74.79057127174201,
        "alt_km": 20085.273643534903,
        "timestamp": "2025-12-27T08:36:18.640824+00:00",
        "meta_object_name": "GPS BIIRM-1 (PRN 17)",
        "meta_object_id": "2005-038A",
        "meta_epoch": "2025-12-24T20:45:31.120992",
        "meta_mean_motion": 2.00577585,
        "meta_eccentricity": 0.0131256,
        "meta_inclination": 55.0211,
        "meta_ra_of_asc_node": 280.2128,
        "meta_arg_of_pericenter": 293.8377,
        "meta_mean_anomaly": 72.9738,
        "meta_ephemeris_type": 0,
        "meta_classification_type": "U",
        "meta_norad_cat_id": 28874,
        "meta_element_set_no": 999,
        "meta_rev_at_epoch": 14834,
        "meta_bstar": 0,
        "meta_mean_motion_dot": -2.3e-07,
        "meta_mean_motion_ddot": 0,
        "tle_line1": "1 28874U 05038A   25358.86494353 -.00000023  00000+0  00000+0 0  9994",
        "tle_line2": "2 28874  55.0211 280.2128 0131256 293.8377  72.9738  2.00577585148340"
      },
      "geometry": {
        "type": "Point",
        "coordinates": [
          -74.79057127174201,
          7.249762030192818
        ]
      }
    }
  ]
}